{"type": "FeatureCollection", "features": [ {"type": "Feature", "properties": {"norad_id": 43058, "name": "GSAT0218 (GALILEO 22)", "group": "galileo", "lat": -26.925492661327002, "lon": -154.30595495152022, "alt_km": 23217.902996901717, "timestamp": "2025-12-20T18:51:31.977413+00:00", "meta": {"OBJECT_NAME": "GSAT0218 (GALILEO 22)", "OBJECT_ID": "2017-079D", "EPOCH": "2025-12-20T06:05:26.226528", "MEAN_MOTION": 1.70474115, "ECCENTRICITY": 0.00027735, "INCLINATION": 55.1262, "RA_OF_ASC_NODE": 226.4264, "ARG_OF_PERICENTER": 307.8467, "MEAN_ANOMALY": 52.2377, "EPHEMERIS_TYPE": 0, "CLASSIFICATION_TYPE": "U", "NORAD_CAT_ID": 43058, "ELEMENT_SET_NO": 999, "REV_AT_EPOCH": 4996, "BSTAR": 0, "MEAN_MOTION_DOT": 7e-07, "MEAN_MOTION_DDOT": 0}, "tle": {"line1": "1 43058U 17079D   25354.25377577  .00000070  00000+0  00000+0 0  9991", "line2": "2 43058  55.1262 226.4264 0002773 307.8467  52.2377  1.70474115 49967"}}, "geometry": {"type": "Point", "coordinates": [-154.30595495152022, -26.925492661327002]}}, {"type": "Feature", "properties": {"norad_id": 43564, "name": "GSAT0221 (GALILEO 25)", "group": "galileo", "lat": 21.8652272462414, "lon": 1.5756975940515932, "alt_km": 23223.06815220817, "timestamp": "2025-12-20T18:51:31.977425+00:00", "meta": {"OBJECT_NAME": "GSAT0221 (GALILEO 25)", "OBJECT_ID": "2018-060A", "EPOCH": "2025-12-19T13:40:28.820064", "MEAN_MOTION": 1.70475889, "ECCENTRICITY": 0.0006721, "INCLINATION": 57.2264, "RA_OF_ASC_NODE": 346.6332, "ARG_OF_PERICENTER": 285.6827, "MEAN_ANOMALY": 74.2548, "EPHEMERIS_TYPE": 0, "CLASSIFICATION_TYPE": "U", "NORAD_CAT_ID": 43564, "ELEMENT_SET_NO": 999, "REV_AT_EPOCH": 4610, "BSTAR": 0, "MEAN_MOTION_DOT": -7.2e-07, "MEAN_MOTION_DDOT": 0}, "tle": {"line1": "1 43564U 18060A   25353.56977801 -.00000072  00000+0  00000+0 0  9996", "line2": "2 43564  57.2264 346.6332 0006721 285.6827  74.2548  1.70475889 46101"}}, "geometry": {"type": "Point", "coordinates": [1.5756975940515932, 21.8652272462414]}}, {"type": "Feature", "properties": {"norad_id": 43565, "name": "GSAT0222 (GALILEO 26)", "group": "galileo", "lat": -52.91716655615006, "lon": -134.93566818647565, "alt_km": 23210.264002307747, "timestamp": "2025-12-20T18:51:31.977436+00:00", "meta": {"OBJECT_NAME": "GSAT0222 (GALILEO 26)", "OBJECT_ID": "2018-060B", "EPOCH": "2025-12-18T00:42:17.845344", "MEAN_MOTION": 1.70475645, "ECCENTRICITY": 0.00060883, "INCLINATION": 57.23, "RA_OF_ASC_NODE": 346.6777, "ARG_OF_PERICENTER": 265.4214, "MEAN_ANOMALY": 94.5238, "EPHEMERIS_TYPE": 0, "CLASSIFICATION_TYPE": "U", "NORAD_CAT_ID": 43565, "ELEMENT_SET_NO": 999, "REV_AT_EPOCH": 4612, "BSTAR": 0, "MEAN_MOTION_DOT": -7.6e-07, "MEAN_MOTION_DDOT": 0}, "tle": {"line1": "1 43565U 18060B   25352.02937321 -.00000076  00000+0  00000+0 0  9994", "line2": "2 43565  57.2300 346.6777 0006088 265.4214  94.5238  1.70475645 46121"}}, "geometry": {"type": "Point", "coordinates": [-134.93566818647565, -52.91716655615006]}}, {"type": "Feature", "properties": {"norad_id": 43566, "name": "GSAT0219 (GALILEO 23)", "group": "galileo", "lat": 49.11845395437893, "lon": 118.50249122871791, "alt_km": 23233.51604420552, "timestamp": "2025-12-20T18:51:31.977447+00:00", "meta": {"OBJECT_NAME": "GSAT0219 (GALILEO 23)", "OBJECT_ID": "2018-060C", "EPOCH": "2025-12-18T20:05:25.027008", "MEAN_MOTION": 1.70475846, "ECCENTRICITY": 0.00058667, "INCLINATION": 57.2292, "RA_OF_ASC_NODE": 346.6575, "ARG_OF_PERICENTER": 289.8664, "MEAN_ANOMALY": 70.0835, "EPHEMERIS_TYPE": 0, "CLASSIFICATION_TYPE": "U", "NORAD_CAT_ID": 43566, "ELEMENT_SET_NO": 999, "REV_AT_EPOCH": 4611, "BSTAR": 0, "MEAN_MOTION_DOT": -7.4e-07, "MEAN_MOTION_DDOT": 0}, "tle": {"line1": "1 43566U 18060C   25352.83709522 -.00000074  00000+0  00000+0 0  9992", "line2": "2 43566  57.2292 346.6575 0005866 289.8664  70.0835  1.70475846 46114"}}, "geometry": {"type": "Point", "coordinates": [118.50249122871791, 49.11845395437893]}}, {"type": "Feature", "properties": {"norad_id": 43567, "name": "GSAT0220 (GALILEO 24)", "group": "galileo", "lat": -16.411336678978877, "lon": -24.342647253365918, "alt_km": 23213.248033332304, "timestamp": "2025-12-20T18:51:31.977457+00:00", "meta": {"OBJECT_NAME": "GSAT0220 (GALILEO 24)", "OBJECT_ID": "2018-060D", "EPOCH": "2025-12-19T15:28:13.770912", "MEAN_MOTION": 1.70475932, "ECCENTRICITY": 0.000607, "INCLINATION": 57.2288, "RA_OF_ASC_NODE": 346.6359, "ARG_OF_PERICENTER": 288.3471, "MEAN_ANOMALY": 71.5983, "EPHEMERIS_TYPE": 0, "CLASSIFICATION_TYPE": "U", "NORAD_CAT_ID": 43567, "ELEMENT_SET_NO": 999, "REV_AT_EPOCH": 4611, "BSTAR": 0, "MEAN_MOTION_DOT": -7.2e-07, "MEAN_MOTION_DDOT": 0}, "tle": {"line1": "1 43567U 18060D   25353.64460383 -.00000072  00000+0  00000+0 0  9990", "line2": "2 43567  57.2288 346.6359 0006070 288.3471  71.5983  1.70475932 46114"}}, "geometry": {"type": "Point", "coordinates": [-24.342647253365918, -16.411336678978877]}}, {"type": "Feature", "properties": {"norad_id": 49809, "name": "GSAT0223 (GALILEO 27)", "group": "galileo", "lat": 52.6672698107454, "lon": 44.16483103272204, "alt_km": 23228.90315139118, "timestamp": "2025-12-20T18:51:31.977468+00:00", "meta": {"OBJECT_NAME": "GSAT0223 (GALILEO 27)", "OBJECT_ID": "2021-116A", "EPOCH": "2025-12-19T11:56:47.637312", "MEAN_MOTION": 1.7047609, "ECCENTRICITY": 0.00044147, "INCLINATION": 57.2179, "RA_OF_ASC_NODE": 346.5305, "ARG_OF_PERICENTER": 254.6091, "MEAN_ANOMALY": 105.9777, "EPHEMERIS_TYPE": 0, "CLASSIFICATION_TYPE": "U", "NORAD_CAT_ID": 49809, "ELEMENT_SET_NO": 999, "REV_AT_EPOCH": 2512, "BSTAR": 0, "MEAN_MOTION_DOT": -7.2e-07, "MEAN_MOTION_DDOT": 0}, "tle": {"line1": "1 49809U 21116A   25353.49777358 -.00000072  00000+0  00000+0 0  9997", "line2": "2 49809  57.2179 346.5305 0004414 254.6091 105.9777  1.70476090 25129"}}, "geometry": {"type": "Point", "coordinates": [44.16483103272204, 52.6672698107454]}}, {"type": "Feature", "properties": {"norad_id": 49810, "name": "GSAT0224 (GALILEO 28)", "group": "galileo", "lat": -3.076220165460354, "lon": 168.47000144825404, "alt_km": 23219.99473503484, "timestamp": "2025-12-20T18:51:31.977480+00:00", "meta": {"OBJECT_NAME": "GSAT0224 (GALILEO 28)", "OBJECT_ID": "2021-116B", "EPOCH": "2025-12-20T04:43:34.979232", "MEAN_MOTION": 1.70476091, "ECCENTRICITY": 0.0003747, "INCLINATION": 57.2188, "RA_OF_ASC_NODE": 346.5104, "ARG_OF_PERICENTER": 259.7047, "MEAN_ANOMALY": 282.5653, "EPHEMERIS_TYPE": 0, "CLASSIFICATION_TYPE": "U", "NORAD_CAT_ID": 49810, "ELEMENT_SET_NO": 999, "REV_AT_EPOCH": 2515, "BSTAR": 0, "MEAN_MOTION_DOT": -7e-07, "MEAN_MOTION_DDOT": 0}, "tle": {"line1": "1 49810U 21116B   25354.19693263 -.00000070  00000+0  00000+0 0  9997", "line2": "2 49810  57.2188 346.5104 0003747 259.7047 282.5653  1.70476091 25152"}}, "geometry": {"type": "Point", "coordinates": [168.47000144825404, -3.076220165460354]}}, {"type": "Feature", "properties": {"norad_id": 59598, "name": "GSAT0225 (GALILEO 29)", "group": "galileo", "lat": 3.070717946072115, "lon": -76.08591888112784, "alt_km": 23215.509684693337, "timestamp": "2025-12-20T18:51:31.977491+00:00", "meta": {"OBJECT_NAME": "GSAT0225 (GALILEO 29)", "OBJECT_ID": "2024-079A", "EPOCH": "2025-12-19T07:40:30.040032", "MEAN_MOTION": 1.7047502, "ECCENTRICITY": 0.0002191, "INCLINATION": 55.0052, "RA_OF_ASC_NODE": 106.1117, "ARG_OF_PERICENTER": 185.2617, "MEAN_ANOMALY": 171.1938, "EPHEMERIS_TYPE": 0, "CLASSIFICATION_TYPE": "U", "NORAD_CAT_ID": 59598, "ELEMENT_SET_NO": 999, "REV_AT_EPOCH": 1024, "BSTAR": 0, "MEAN_MOTION_DOT": -6e-08, "MEAN_MOTION_DDOT": 0}, "tle": {"line1": "1 59598U 24079A   25353.31979213 -.00000006  00000+0  00000+0 0  9996", "line2": "2 59598  55.0052 106.1117 0002191 185.2617 171.1938  1.70475020 10248"}}, "geometry": {"type": "Point", "coordinates": [-76.08591888112784, 3.070717946072115]}}, {"type": "Feature", "properties": {"norad_id": 59600, "name": "GSAT0227 (GALILEO 30)", "group": "galileo", "lat": 47.24320353616306, "lon": 155.23699090389516, "alt_km": 23211.27471752403, "timestamp": "2025-12-20T18:51:31.977502+00:00", "meta": {"OBJECT_NAME": "GSAT0227 (GALILEO 30)", "OBJECT_ID": "2024-079C", "EPOCH": "2025-12-19T12:12:51.636672", "MEAN_MOTION": 1.70474897, "ECCENTRICITY": 0.0002924, "INCLINATION": 55.0006, "RA_OF_ASC_NODE": 106.105, "ARG_OF_PERICENTER": 116.8359, "MEAN_ANOMALY": 243.1562, "EPHEMERIS_TYPE": 0, "CLASSIFICATION_TYPE": "U", "NORAD_CAT_ID": 59600, "ELEMENT_SET_NO": 999, "REV_AT_EPOCH": 1030, "BSTAR": 0, "MEAN_MOTION_DOT": -6e-08, "MEAN_MOTION_DDOT": 0}, "tle": {"line1": "1 59600U 24079C   25353.50893098 -.00000006  00000+0  00000+0 0  9997", "line2": "2 59600  55.0006 106.1050 0002924 116.8359 243.1562  1.70474897 10305"}}, "geometry": {"type": "Point", "coordinates": [155.23699090389516, 47.24320353616306]}}, {"type": "Feature", "properties": {"norad_id": 61182, "name": "GSAT0232 (GALILEO 32)", "group": "galileo", "lat": -53.48997872299029, "lon": 115.89668044678727, "alt_km": 23224.52858816856, "timestamp": "2025-12-20T18:51:31.977514+00:00", "meta": {"OBJECT_NAME": "GSAT0232 (GALILEO 32)", "OBJECT_ID": "2024-167A", "EPOCH": "2025-12-20T01:45:16.724736", "MEAN_MOTION": 1.70473657, "ECCENTRICITY": 0.00018786, "INCLINATION": 55.2386, "RA_OF_ASC_NODE": 226.2297, "ARG_OF_PERICENTER": 206.8342, "MEAN_ANOMALY": 333.9154, "EPHEMERIS_TYPE": 0, "CLASSIFICATION_TYPE": "U", "NORAD_CAT_ID": 61182, "ELEMENT_SET_NO": 999, "REV_AT_EPOCH": 782, "BSTAR": 0, "MEAN_MOTION_DOT": 7e-07, "MEAN_MOTION_DDOT": 0}, "tle": {"line1": "1 61182U 24167A   25354.07311024  .00000070  00000+0  00000+0 0  9990", "line2": "2 61182  55.2386 226.2297 0001878 206.8342 333.9154  1.70473657  7823"}}, "geometry": {"type": "Point", "coordinates": [115.89668044678727, -53.48997872299029]}}]}